{
  "type": "Feature",
  "properties": {},
  "geometry": {
    "type": "Polygon",
    "coordinates": [
      [
        [
          -77.27762769948305,
          41.01045815876944
        ],
        [
          -74.50050689120566,
          41.01045815876944
        ],
        [
          -74.50050689120566,
          39.594986186919584
        ],
        [
          -77.27762769948305,
          39.594986186919584
        ],
        [
          -77.27762769948305,
          41.01045815876944
        ]
      ]
    ]
  }
}
